{
  "type": "FeatureCollection",
  "features": [
    {
      "type": "Feature",
      "properties": {
        "norad_id": 33412,
        "name": "COSMO-SKYMED 3",
        "group": "resource",
        "lat": -73.40920191455588,
        "lon": 1.9753897123913988,
        "alt_km": 563.9492384317691,
        "timestamp": "2025-12-24T22:42:21.678804+00:00",
        "meta_object_name": "COSMO-SKYMED 3",
        "meta_object_id": "2008-054A",
        "meta_epoch": "2025-12-24T07:13:11.354304",
        "meta_mean_motion": 15.05449686,
        "meta_eccentricity": 0.00170798,
        "meta_inclination": 97.8455,
        "meta_ra_of_asc_node": 208.8877,
        "meta_arg_of_pericenter": 133.9861,
        "meta_mean_anomaly": 226.2776,
        "meta_ephemeris_type": 0,
        "meta_classification_type": "U",
        "meta_norad_cat_id": 33412,
        "meta_element_set_no": 999,
        "meta_rev_at_epoch": 93061,
        "meta_bstar": 0.00018398249,
        "meta_mean_motion_dot": 2.585e-05,
        "meta_mean_motion_ddot": 0,
        "tle_line1": "1 33412U 08054A   25358.30082586  .00002585  00000+0  18398-3 0  9996",
        "tle_line2": "2 33412  97.8455 208.8877 0017079 133.9861 226.2776 15.05449686930617"
      },
      "geometry": {
        "type": "Point",
        "coordinates": [
          1.9753897123913988,
          -73.40920191455588
        ]
      }
    },
    {
      "type": "Feature",
      "properties": {
        "norad_id": 33446,
        "name": "YAOGAN-4",
        "group": "resource",
        "lat": -39.5337357853595,
        "lon": -64.47634566086714,
        "alt_km": 620.2886237102475,
        "timestamp": "2025-12-24T22:42:21.678815+00:00",
        "meta_object_name": "YAOGAN-4",
        "meta_object_id": "2008-061A",
        "meta_epoch": "2025-12-24T06:41:21.910848",
        "meta_mean_motion": 14.82714813,
        "meta_eccentricity": 0.00129966,
        "meta_inclination": 97.9197,
        "meta_ra_of_asc_node": 288.2655,
        "meta_arg_of_pericenter": 282.4259,
        "meta_mean_anomaly": 77.55,
        "meta_ephemeris_type": 0,
        "meta_classification_type": "U",
        "meta_norad_cat_id": 33446,
        "meta_element_set_no": 999,
        "meta_rev_at_epoch": 91974,
        "meta_bstar": 0.0001734889,
        "meta_mean_motion_dot": 1.348e-05,
        "meta_mean_motion_ddot": 0,
        "tle_line1": "1 33446U 08061A   25358.27872582  .00001348  00000+0  17349-3 0  9991",
        "tle_line2": "2 33446  97.9197 288.2655 0012996 282.4259  77.5500 14.82714813919742"
      },
      "geometry": {
        "type": "Point",
        "coordinates": [
          -64.47634566086714,
          -39.5337357853595
        ]
      }
    },
    {
      "type": "Feature",
      "properties": {
        "norad_id": 33492,
        "name": "GOSAT (IBUKI)",
        "group": "resource",
        "lat": 65.74842060152913,
        "lon": 89.00547334035372,
        "alt_km": 661.9085806034536,
        "timestamp": "2025-12-24T22:42:21.678826+00:00",
        "meta_object_name": "GOSAT (IBUKI)",
        "meta_object_id": "2009-002A",
        "meta_epoch": "2025-12-24T06:02:16.668384",
        "meta_mean_motion": 14.67546519,
        "meta_eccentricity": 0.00010131,
        "meta_inclination": 98.0771,
        "meta_ra_of_asc_node": 106.695,
        "meta_arg_of_pericenter": 104.5192,
        "meta_mean_anomaly": 255.6125,
        "meta_ephemeris_type": 0,
        "meta_classification_type": "U",
        "meta_norad_cat_id": 33492,
        "meta_element_set_no": 999,
        "meta_rev_at_epoch": 90580,
        "meta_bstar": 0.00015641377,
        "meta_mean_motion_dot": 8.39e-06,
        "meta_mean_motion_ddot": 0,
        "tle_line1": "1 33492U 09002A   25358.25158181  .00000839  00000+0  15641-3 0  9995",
        "tle_line2": "2 33492  98.0771 106.6950 0001013 104.5192 255.6125 14.67546519905805"
      },
      "geometry": {
        "type": "Point",
        "coordinates": [
          89.00547334035372,
          65.74842060152913
        ]
      }
    },
    {
      "type": "Feature",
      "properties": {
        "norad_id": 35681,
        "name": "DEIMOS-1",
        "group": "resource",
        "lat": 68.50243601453822,
        "lon": -0.8850246603791393,
        "alt_km": 637.4954627531906,
        "timestamp": "2025-12-24T22:42:21.678837+00:00",
        "meta_object_name": "DEIMOS-1",
        "meta_object_id": "2009-041A",
        "meta_epoch": "2025-12-24T07:33:20.179296",
        "meta_mean_motion": 14.74969193,
        "meta_eccentricity": 0.00025047,
        "meta_inclination": 97.7155,
        "meta_ra_of_asc_node": 158.3796,
        "meta_arg_of_pericenter": 60.8153,
        "meta_mean_anomaly": 299.3307,
        "meta_ephemeris_type": 0,
        "meta_classification_type": "U",
        "meta_norad_cat_id": 35681,
        "meta_element_set_no": 999,
        "meta_rev_at_epoch": 88110,
        "meta_bstar": 0.00010490674,
        "meta_mean_motion_dot": 6.58e-06,
        "meta_mean_motion_ddot": 0,
        "tle_line1": "1 35681U 09041A   25358.31481689  .00000658  00000+0  10491-3 0  9996",
        "tle_line2": "2 35681  97.7155 158.3796 0002504  60.8153 299.3307 14.74969193881106"
      },
      "geometry": {
        "type": "Point",
        "coordinates": [
          -0.8850246603791393,
          68.50243601453822
        ]
      }
    },
    {
      "type": "Feature",
      "properties": {
        "norad_id": 35682,
        "name": "DUBAISAT-1",
        "group": "resource",
        "lat": 29.900548693610837,
        "lon": 124.81978869554153,
        "alt_km": 648.0090722209006,
        "timestamp": "2025-12-24T22:42:21.678868+00:00",
        "meta_object_name": "DUBAISAT-1",
        "meta_object_id": "2009-041B",
        "meta_epoch": "2025-12-24T06:17:03.407136",
        "meta_mean_motion": 14.74634332,
        "meta_eccentricity": 0.00092703,
        "meta_inclination": 97.9797,
        "meta_ra_of_asc_node": 128.7724,
        "meta_arg_of_pericenter": 273.0676,
        "meta_mean_anomaly": 86.9472,
        "meta_ephemeris_type": 0,
        "meta_classification_type": "U",
        "meta_norad_cat_id": 35682,
        "meta_element_set_no": 999,
        "meta_rev_at_epoch": 87931,
        "meta_bstar": 0.00019920706,
        "meta_mean_motion_dot": 1.279e-05,
        "meta_mean_motion_ddot": 0,
        "tle_line1": "1 35682U 09041B   25358.26184499  .00001279  00000+0  19921-3 0  9997",
        "tle_line2": "2 35682  97.9797 128.7724 0009270 273.0676  86.9472 14.74634332879315"
      },
      "geometry": {
        "type": "Point",
        "coordinates": [
          124.81978869554153,
          29.900548693610837
        ]
      }
    },
    {
      "type": "Feature",
      "properties": {
        "norad_id": 35931,
        "name": "OCEANSAT-2",
        "group": "resource",
        "lat": 22.64201447541041,
        "lon": -178.23447683309013,
        "alt_km": 904.0568181954422,
        "timestamp": "2025-12-24T22:42:21.678882+00:00",
        "meta_object_name": "OCEANSAT-2",
        "meta_object_id": "2009-051A",
        "meta_epoch": "2025-12-24T06:31:03.561600",
        "meta_mean_motion": 13.99622884,
        "meta_eccentricity": 0.00159196,
        "meta_inclination": 98.2218,
        "meta_ra_of_asc_node": 357.702,
        "meta_arg_of_pericenter": 14.7473,
        "meta_mean_anomaly": 345.4155,
        "meta_ephemeris_type": 0,
        "meta_classification_type": "U",
        "meta_norad_cat_id": 35931,
        "meta_element_set_no": 999,
        "meta_rev_at_epoch": 85486,
        "meta_bstar": -4.738766e-06,
        "meta_mean_motion_dot": -4.4e-07,
        "meta_mean_motion_ddot": 0,
        "tle_line1": "1 35931U 09051A   25358.27156900 -.00000044  00000+0 -47388-5 0  9993",
        "tle_line2": "2 35931  98.2218 357.7020 0015919  14.7473 345.4155 13.99622884854868"
      },
      "geometry": {
        "type": "Point",
        "coordinates": [
          -178.23447683309013,
          22.64201447541041
        ]
      }
    },
    {
      "type": "Feature",
      "properties": {
        "norad_id": 35946,
        "name": "WORLDVIEW-2 (WV-2)",
        "group": "resource",
        "lat": 28.94407373522712,
        "lon": -105.40589572461094,
        "alt_km": 765.7974968659009,
        "timestamp": "2025-12-24T22:42:21.678894+00:00",
        "meta_object_name": "WORLDVIEW-2 (WV-2)",
        "meta_object_id": "2009-055A",
        "meta_epoch": "2025-12-24T05:18:20.153376",
        "meta_mean_motion": 14.37728963,
        "meta_eccentricity": 0.00047554,
        "meta_inclination": 98.4773,
        "meta_ra_of_asc_node": 69.148,
        "meta_arg_of_pericenter": 42.3913,
        "meta_mean_anomaly": 317.764,
        "meta_ephemeris_type": 0,
        "meta_classification_type": "U",
        "meta_norad_cat_id": 35946,
        "meta_element_set_no": 999,
        "meta_rev_at_epoch": 85050,
        "meta_bstar": 7.1858021e-05,
        "meta_mean_motion_dot": 1.73e-06,
        "meta_mean_motion_ddot": 0,
        "tle_line1": "1 35946U 09055A   25358.22106659  .00000173  00000+0  71858-4 0  9993",
        "tle_line2": "2 35946  98.4773  69.1480 0004755  42.3913 317.7640 14.37728963850504"
      },
      "geometry": {
        "type": "Point",
        "coordinates": [
          -105.40589572461094,
          28.94407373522712
        ]
      }
    }
  ]
}